{"fetched_at":"2026-03-29T16:36:15Z","count":15609,"tles":[{"name":"STARLINK-32693","line1":"1 62437U 24251F   26087.74965889  .00016323  00000+0  56195-3 0  9998","line2":"2 62437  53.1586 244.0689 0000915  87.4018 272.7088 15.30203242 70900","category":"Starlink"}]}